ONEWEB-0572             
1 55151U 23004M   25208.89219718  .00000088  00000+0  19466-3 0  9992
2 55151  87.9041  70.4130 0001590  79.2039 280.9271 13.17650663124776
ONEWEB-0573             
1 55152U 23004N   25208.59054413 -.00000013  00000+0 -64905-4 0  9998
2 55152  87.9105  39.9945 0001190  61.9487 298.1766 13.18686438126911
ONEWEB-0588             
1 55153U 23004P   25208.50806354  .00000048  00000+0  89647-4 0  9995
2 55153  87.9111  39.9949 0001315  85.1650 274.9633 13.18684998126905
ONEWEB-0598             
1 55154U 23004Q   25208.59379124 -.00000096  00000+0 -30563-3 0  9992
2 55154  87.8809  85.7810 0001905  59.6173 300.5143 13.11414603123351
ONEWEB-0599             
1 55155U 23004R   25208.62559265  .00000058  00000+0  11697-3 0  9996
2 55155  87.9041  70.4705 0001913  77.6204 282.5141 13.17649410124742
ONEWEB-0614             
1 55156U 23004S   25208.89389115  .00000217  00000+0  57705-3 0  9998
2 55156  87.8809  85.7307 0001517  87.5671 272.5631 13.11414056123358
ONEWEB-0616             
1 55157U 23004T   25208.89558299  .00000067  00000+0  13808-3 0  9999
2 55157  87.9040  70.4074 0002836  81.0455 279.0998 13.17649616124990
ONEWEB-0617             
1 55158U 23004U   25208.88202665  .00000542  00000+0  14929-2 0  9994
2 55158  87.8805  85.7122 0001406  79.6216 280.5070 13.11415821123363
ONEWEB-0618             
1 55159U 23004V   25208.74425520  .00001055  00000+0  18167-3 0  9996
2 55159  86.9114 307.5542 0016137  51.0939 309.1711 14.67558747133516
ONEWEB-0619             
1 55160U 23004W   25208.85170140  .00000046  00000+0  85617-4 0  9999
2 55160  87.9035  70.3929 0001948  97.7754 262.3599 13.17648225124880
ONEWEB-0620             
1 55161U 23004X   25208.57176132  .00000588  00000+0  16223-2 0  9992
2 55161  87.8808  85.7952 0001658  72.0056 288.1253 13.11417452123289
ONEWEB-0621             
1 55162U 23004Y   25208.90406172 -.00000217  00000+0 -64875-3 0  9998
2 55162  87.8810  85.6850 0001724  87.4113 272.7212 13.11414199123332
ONEWEB-0622             
1 55163U 23004Z   25208.60395943 -.00000439  00000+0 -12747-2 0  9995
2 55163  87.8807  85.7684 0001008  89.3636 270.7608 13.11415496123250
ONEWEB-0623             
1 55164U 23004AA  25208.61883916  .00000046  00000+0  85422-4 0  9993
2 55164  87.9037  70.4959 0001360 106.8932 253.2349 13.17649906124843
ONEWEB-0624             
1 55165U 23004AB  25208.61989227 -.00000025  00000+0 -10481-3 0  9997
2 55165  87.8854  55.1816 0001745  87.7059 272.4270 13.12942937125488
ONEWEB-0625             
1 55166U 23004AC  25208.60870377  .00000064  00000+0  13054-3 0  9992
2 55166  87.9037  70.4949 0001955  82.7689 277.3665 13.17648341124834
ONEWEB-0626             
1 55167U 23004AD  25208.59858031  .00000023  00000+0  25663-4 0  9999
2 55167  87.9038  70.4955 0001774  64.1785 295.9530 13.17650267124830
