[{"OBJECT_NAME":"ONEWEB-0572","OBJECT_ID":"2023-004M","EPOCH":"2025-07-27T21:24:45.836352","MEAN_MOTION":13.17650663,"ECCENTRICITY":0.000159,"INCLINATION":87.9041,"RA_OF_ASC_NODE":70.413,"ARG_OF_PERICENTER":79.2039,"MEAN_ANOMALY":280.9271,"EPHEMERIS_TYPE":0,"CLASSIFICATION_TYPE":"U","NORAD_CAT_ID":55151,"ELEMENT_SET_NO":999,"REV_AT_EPOCH":12477,"BSTAR":0.00019466,"MEAN_MOTION_DOT":8.8e-7,"MEAN_MOTION_DDOT":0},{"OBJECT_NAME":"ONEWEB-0573","OBJECT_ID":"2023-004N","EPOCH":"2025-07-27T14:10:23.012832","MEAN_MOTION":13.18686438,"ECCENTRICITY":0.000119,"INCLINATION":87.9105,"RA_OF_ASC_NODE":39.9945,"ARG_OF_PERICENTER":61.9487,"MEAN_ANOMALY":298.1766,"EPHEMERIS_TYPE":0,"CLASSIFICATION_TYPE":"U","NORAD_CAT_ID":55152,"ELEMENT_SET_NO":999,"REV_AT_EPOCH":12691,"BSTAR":-6.4905e-5,"MEAN_MOTION_DOT":-1.3e-7,"MEAN_MOTION_DDOT":0},{"OBJECT_NAME":"ONEWEB-0588","OBJECT_ID":"2023-004P","EPOCH":"2025-07-27T12:11:36.689856","MEAN_MOTION":13.18684998,"ECCENTRICITY":0.0001315,"INCLINATION":87.9111,"RA_OF_ASC_NODE":39.9949,"ARG_OF_PERICENTER":85.165,"MEAN_ANOMALY":274.9633,"EPHEMERIS_TYPE":0,"CLASSIFICATION_TYPE":"U","NORAD_CAT_ID":55153,"ELEMENT_SET_NO":999,"REV_AT_EPOCH":12690,"BSTAR":8.9647e-5,"MEAN_MOTION_DOT":4.8e-7,"MEAN_MOTION_DDOT":0},{"OBJECT_NAME":"ONEWEB-0598","OBJECT_ID":"2023-004Q","EPOCH":"2025-07-27T14:15:03.563136","MEAN_MOTION":13.11414603,"ECCENTRICITY":0.0001905,"INCLINATION":87.8809,"RA_OF_ASC_NODE":85.781,"ARG_OF_PERICENTER":59.6173,"MEAN_ANOMALY":300.5143,"EPHEMERIS_TYPE":0,"CLASSIFICATION_TYPE":"U","NORAD_CAT_ID":55154,"ELEMENT_SET_NO":999,"REV_AT_EPOCH":12335,"BSTAR":-0.00030563,"MEAN_MOTION_DOT":-9.6e-7,"MEAN_MOTION_DDOT":0},{"OBJECT_NAME":"ONEWEB-0599","OBJECT_ID":"2023-004R","EPOCH":"2025-07-27T15:00:51.204960","MEAN_MOTION":13.1764941,"ECCENTRICITY":0.0001913,"INCLINATION":87.9041,"RA_OF_ASC_NODE":70.4705,"ARG_OF_PERICENTER":77.6204,"MEAN_ANOMALY":282.5141,"EPHEMERIS_TYPE":0,"CLASSIFICATION_TYPE":"U","NORAD_CAT_ID":55155,"ELEMENT_SET_NO":999,"REV_AT_EPOCH":12474,"BSTAR":0.00011697,"MEAN_MOTION_DOT":5.8e-7,"MEAN_MOTION_DDOT":0},{"OBJECT_NAME":"ONEWEB-0614","OBJECT_ID":"2023-004S","EPOCH":"2025-07-27T21:27:12.195360","MEAN_MOTION":13.11414056,"ECCENTRICITY":0.0001517,"INCLINATION":87.8809,"RA_OF_ASC_NODE":85.7307,"ARG_OF_PERICENTER":87.5671,"MEAN_ANOMALY":272.5631,"EPHEMERIS_TYPE":0,"CLASSIFICATION_TYPE":"U","NORAD_CAT_ID":55156,"ELEMENT_SET_NO":999,"REV_AT_EPOCH":12335,"BSTAR":0.00057705,"MEAN_MOTION_DOT":2.17e-6,"MEAN_MOTION_DDOT":0},{"OBJECT_NAME":"ONEWEB-0616","OBJECT_ID":"2023-004T","EPOCH":"2025-07-27T21:29:38.370336","MEAN_MOTION":13.17649616,"ECCENTRICITY":0.0002836,"INCLINATION":87.904,"RA_OF_ASC_NODE":70.4074,"ARG_OF_PERICENTER":81.0455,"MEAN_ANOMALY":279.0998,"EPHEMERIS_TYPE":0,"CLASSIFICATION_TYPE":"U","NORAD_CAT_ID":55157,"ELEMENT_SET_NO":999,"REV_AT_EPOCH":12499,"BSTAR":0.00013808,"MEAN_MOTION_DOT":6.7e-7,"MEAN_MOTION_DDOT":0},{"OBJECT_NAME":"ONEWEB-0617","OBJECT_ID":"2023-004U","EPOCH":"2025-07-27T21:10:07.102560","MEAN_MOTION":13.11415821,"ECCENTRICITY":0.0001406,"INCLINATION":87.8805,"RA_OF_ASC_NODE":85.7122,"ARG_OF_PERICENTER":79.6216,"MEAN_ANOMALY":280.507,"EPHEMERIS_TYPE":0,"CLASSIFICATION_TYPE":"U","NORAD_CAT_ID":55158,"ELEMENT_SET_NO":999,"REV_AT_EPOCH":12336,"BSTAR":0.0014929,"MEAN_MOTION_DOT":5.42e-6,"MEAN_MOTION_DDOT":0},{"OBJECT_NAME":"ONEWEB-0618","OBJECT_ID":"2023-004V","EPOCH":"2025-07-27T17:51:43.649280","MEAN_MOTION":14.67558747,"ECCENTRICITY":0.0016137,"INCLINATION":86.9114,"RA_OF_ASC_NODE":307.5542,"ARG_OF_PERICENTER":51.0939,"MEAN_ANOMALY":309.1711,"EPHEMERIS_TYPE":0,"CLASSIFICATION_TYPE":"U","NORAD_CAT_ID":55159,"ELEMENT_SET_NO":999,"REV_AT_EPOCH":13351,"BSTAR":0.00018167,"MEAN_MOTION_DOT":1.055e-5,"MEAN_MOTION_DDOT":0},{"OBJECT_NAME":"ONEWEB-0619","OBJECT_ID":"2023-004W","EPOCH":"2025-07-27T20:26:27.000960","MEAN_MOTION":13.17648225,"ECCENTRICITY":0.0001948,"INCLINATION":87.9035,"RA_OF_ASC_NODE":70.3929,"ARG_OF_PERICENTER":97.7754,"MEAN_ANOMALY":262.3599,"EPHEMERIS_TYPE":0,"CLASSIFICATION_TYPE":"U","NORAD_CAT_ID":55160,"ELEMENT_SET_NO":999,"REV_AT_EPOCH":12488,"BSTAR":8.5617e-5,"MEAN_MOTION_DOT":4.6e-7,"MEAN_MOTION_DDOT":0},{"OBJECT_NAME":"ONEWEB-0620","OBJECT_ID":"2023-004X","EPOCH":"2025-07-27T13:43:20.178048","MEAN_MOTION":13.11417452,"ECCENTRICITY":0.0001658,"INCLINATION":87.8808,"RA_OF_ASC_NODE":85.7952,"ARG_OF_PERICENTER":72.0056,"MEAN_ANOMALY":288.1253,"EPHEMERIS_TYPE":0,"CLASSIFICATION_TYPE":"U","NORAD_CAT_ID":55161,"ELEMENT_SET_NO":999,"REV_AT_EPOCH":12328,"BSTAR":0.0016223,"MEAN_MOTION_DOT":5.88e-6,"MEAN_MOTION_DDOT":0},{"OBJECT_NAME":"ONEWEB-0621","OBJECT_ID":"2023-004Y","EPOCH":"2025-07-27T21:41:50.932608","MEAN_MOTION":13.11414199,"ECCENTRICITY":0.0001724,"INCLINATION":87.881,"RA_OF_ASC_NODE":85.685,"ARG_OF_PERICENTER":87.4113,"MEAN_ANOMALY":272.7212,"EPHEMERIS_TYPE":0,"CLASSIFICATION_TYPE":"U","NORAD_CAT_ID":55162,"ELEMENT_SET_NO":999,"REV_AT_EPOCH":12333,"BSTAR":-0.00064875,"MEAN_MOTION_DOT":-2.17e-6,"MEAN_MOTION_DDOT":0},{"OBJECT_NAME":"ONEWEB-0622","OBJECT_ID":"2023-004Z","EPOCH":"2025-07-27T14:29:42.094752","MEAN_MOTION":13.11415496,"ECCENTRICITY":0.0001008,"INCLINATION":87.8807,"RA_OF_ASC_NODE":85.7684,"ARG_OF_PERICENTER":89.3636,"MEAN_ANOMALY":270.7608,"EPHEMERIS_TYPE":0,"CLASSIFICATION_TYPE":"U","NORAD_CAT_ID":55163,"ELEMENT_SET_NO":999,"REV_AT_EPOCH":12325,"BSTAR":-0.0012747,"MEAN_MOTION_DOT":-4.39e-6,"MEAN_MOTION_DDOT":0},{"OBJECT_NAME":"ONEWEB-0623","OBJECT_ID":"2023-004AA","EPOCH":"2025-07-27T14:51:07.703424","MEAN_MOTION":13.17649906,"ECCENTRICITY":0.000136,"INCLINATION":87.9037,"RA_OF_ASC_NODE":70.4959,"ARG_OF_PERICENTER":106.8932,"MEAN_ANOMALY":253.2349,"EPHEMERIS_TYPE":0,"CLASSIFICATION_TYPE":"U","NORAD_CAT_ID":55164,"ELEMENT_SET_NO":999,"REV_AT_EPOCH":12484,"BSTAR":8.5422e-5,"MEAN_MOTION_DOT":4.6e-7,"MEAN_MOTION_DDOT":0},{"OBJECT_NAME":"ONEWEB-0624","OBJECT_ID":"2023-004AB","EPOCH":"2025-07-27T14:52:38.692128","MEAN_MOTION":13.12942937,"ECCENTRICITY":0.0001745,"INCLINATION":87.8854,"RA_OF_ASC_NODE":55.1816,"ARG_OF_PERICENTER":87.7059,"MEAN_ANOMALY":272.427,"EPHEMERIS_TYPE":0,"CLASSIFICATION_TYPE":"U","NORAD_CAT_ID":55165,"ELEMENT_SET_NO":999,"REV_AT_EPOCH":12548,"BSTAR":-0.00010481,"MEAN_MOTION_DOT":-2.5e-7,"MEAN_MOTION_DDOT":0},{"OBJECT_NAME":"ONEWEB-0625","OBJECT_ID":"2023-004AC","EPOCH":"2025-07-27T14:36:32.005728","MEAN_MOTION":13.17648341,"ECCENTRICITY":0.0001955,"INCLINATION":87.9037,"RA_OF_ASC_NODE":70.4949,"ARG_OF_PERICENTER":82.7689,"MEAN_ANOMALY":277.3665,"EPHEMERIS_TYPE":0,"CLASSIFICATION_TYPE":"U","NORAD_CAT_ID":55166,"ELEMENT_SET_NO":999,"REV_AT_EPOCH":12483,"BSTAR":0.00013054,"MEAN_MOTION_DOT":6.4e-7,"MEAN_MOTION_DDOT":0},{"OBJECT_NAME":"ONEWEB-0626","OBJECT_ID":"2023-004AD","EPOCH":"2025-07-27T14:21:57.338784","MEAN_MOTION":13.17650267,"ECCENTRICITY":0.0001774,"INCLINATION":87.9038,"RA_OF_ASC_NODE":70.4955,"ARG_OF_PERICENTER":64.1785,"MEAN_ANOMALY":295.953,"EPHEMERIS_TYPE":0,"CLASSIFICATION_TYPE":"U","NORAD_CAT_ID":55167,"ELEMENT_SET_NO":999,"REV_AT_EPOCH":12483,"BSTAR":2.5663e-5,"MEAN_MOTION_DOT":2.3e-7,"MEAN_MOTION_DDOT":0}]
